[{"OBJECT_NAME":"STARLINK-30100","OBJECT_ID":"2023-119X","EPOCH":"2026-03-09T22:00:01.999584","MEAN_MOTION":15.17573098,"ECCENTRICITY":0.00019511,"INCLINATION":43.0003,"RA_OF_ASC_NODE":79.9179,"ARG_OF_PERICENTER":284.7245,"MEAN_ANOMALY":141.6693,"EPHEMERIS_TYPE":0,"CLASSIFICATION_TYPE":"U","NORAD_CAT_ID":57623,"ELEMENT_SET_NO":999,"REV_AT_EPOCH":573,"BSTAR":0.052332137,"MEAN_MOTION_DOT":0.01165297,"MEAN_MOTION_DDOT":0},{"OBJECT_NAME":"PIAST-M","OBJECT_ID":"2025-276CW","EPOCH":"2026-03-09T17:04:49.285920","MEAN_MOTION":15.19194203,"ECCENTRICITY":7.473e-5,"INCLINATION":97.4255,"RA_OF_ASC_NODE":144.0316,"ARG_OF_PERICENTER":58.1322,"MEAN_ANOMALY":301.9986,"EPHEMERIS_TYPE":0,"CLASSIFICATION_TYPE":"U","NORAD_CAT_ID":66758,"ELEMENT_SET_NO":999,"REV_AT_EPOCH":1532,"BSTAR":0.00030409287,"MEAN_MOTION_DOT":6.332e-5,"MEAN_MOTION_DDOT":0}]
